OBJECT_NAME,OBJECT_ID,EPOCH,MEAN_MOTION,ECCENTRICITY,INCLINATION,RA_OF_ASC_NODE,ARG_OF_PERICENTER,MEAN_ANOMALY,EPHEMERIS_TYPE,CLASSIFICATION_TYPE,NORAD_CAT_ID,ELEMENT_SET_NO,REV_AT_EPOCH,BSTAR,MEAN_MOTION_DOT,MEAN_MOTION_DDOT
ONEWEB-0012,2019-010A,2026-07-16T03:10:05.306304,13.16593889,.00016445,87.9077,223.0353,94.6878,265.4441,0,U,44057,999,35537,.58461006E-4,.35E-6,0
ONEWEB-0010,2019-010B,2026-07-16T07:25:27.846048,13.16594392,.00023058,87.9080,222.9962,99.8126,260.3266,0,U,44058,999,35544,.12499226E-3,.61E-6,0
ONEWEB-0008,2019-010C,2026-07-16T02:33:37.842336,13.16593412,.00021612,87.9078,223.0316,86.0846,274.0532,0,U,44059,999,35553,-.31019948E-3,-.106E-5,0
ONEWEB-0007,2019-010D,2026-07-16T03:57:16.687008,13.15548495,.00019638,87.8984,253.4472,105.8191,254.3156,0,U,44060,999,35518,.21164201E-3,.93E-6,0
ONEWEB-0006,2019-010E,2026-07-16T04:02:57.349248,13.15551374,.00022662,87.8996,253.4135,97.4148,262.7240,0,U,44061,999,35523,-.80627828E-4,-.18E-6,0
ONEWEB-0011,2019-010F,2026-07-16T05:06:50.929344,13.15549439,.00022809,87.8996,253.4148,97.3169,262.8220,0,U,44062,999,35523,.32270878E-3,.134E-5,0
ONEWEB-0013,2020-008A,2026-07-16T06:46:52.969728,13.09454698,.00009233,87.8487,46.9507,65.2317,294.8906,0,U,45131,999,30987,.33900245E-3,.129E-5,0
ONEWEB-0017,2020-008B,2026-07-16T05:52:20.377920,13.10372434,.00020191,87.8809,30.4771,92.6618,267.4740,0,U,45132,999,31175,-.83854437E-3,-.28E-5,0
ONEWEB-0020,2020-008C,2026-07-16T06:58:19.308864,13.10373444,.00018406,87.8822,30.4676,87.2280,272.9058,0,U,45133,999,31215,.16294072E-2,.581E-5,0
ONEWEB-0021,2020-008D,2026-07-16T01:50:26.039328,13.10369333,.00017664,87.8812,30.5246,91.2561,268.8768,0,U,45134,999,31243,.11250887E-2,.405E-5,0
ONEWEB-0023,2020-008F,2026-07-16T05:46:13.135584,13.10368379,.00018003,87.8816,30.4760,82.8580,277.2752,0,U,45136,999,31188,-.26982394E-3,-.82E-6,0
ONEWEB-0024,2020-008G,2026-07-16T06:56:03.883776,13.10373352,.0001865,87.8829,30.4599,90.0484,270.0857,0,U,45137,999,31205,.14138609E-2,.506E-5,0
ONEWEB-0025,2020-008H,2026-07-16T01:25:48.378144,13.10374161,.0002222,87.8829,30.4956,80.1437,279.9941,0,U,45138,999,31235,.1532593E-2,.548E-5,0
ONEWEB-0026,2020-008J,2026-07-16T05:27:47.459232,13.11418019,.00019957,87.8885,15.2847,91.5005,268.6351,0,U,45139,999,31491,-.10355013E-2,-.354E-5,0
ONEWEB-0028,2020-008K,2026-07-16T01:12:39.473568,13.11414726,.00012832,87.8877,15.3270,86.3181,273.8094,0,U,45140,999,31240,-.87116459E-3,-.296E-5,0
ONEWEB-0032,2020-008L,2026-07-16T02:15:04.237920,13.10370682,.0001449,87.8814,30.5092,78.4467,281.6823,0,U,45141,999,31208,-.13382629E-2,-.454E-5,0
ONEWEB-0033,2020-008M,2026-07-16T01:38:13.693920,13.10371710,.00022762,87.8811,30.5202,95.8629,264.2757,0,U,45142,999,31199,.18817688E-2,.67E-5,0
ONEWEB-0035,2020-008N,2026-07-16T02:07:43.980672,13.10373717,.00018288,87.8809,30.5095,91.0529,269.0808,0,U,45143,999,31172,-.48483038E-3,-.157E-5,0
ONEWEB-0036,2020-008P,2026-07-16T01:35:37.531104,13.10373721,.00017376,87.8830,30.5314,82.1434,277.9890,0,U,45144,999,31214,.17310456E-2,.617E-5,0
ONEWEB-0038,2020-008Q,2026-07-16T00:13:02.818560,13.11418965,.00020474,87.8901,15.3410,141.7676,218.3598,0,U,45145,999,31410,.54346564E-3,.205E-5,0
ONEWEB-0039,2020-008R,2026-07-16T01:43:07.072896,13.10370917,.0001324,87.8816,30.5106,82.6340,277.4937,0,U,45146,999,31194,.17396482E-2,.62E-5,0
ONEWEB-0040,2020-008S,2026-07-16T01:33:19.953792,13.10372431,.00018531,87.8815,30.5222,76.7791,283.3543,0,U,45147,999,31164,.19198825E-2,.683E-5,0
ONEWEB-0043,2020-008U,2026-07-16T01:35:58.806240,13.10374992,.0001344,87.8821,30.5114,80.2590,279.8689,0,U,45149,999,31196,.18124413E-2,.645E-5,0
ONEWEB-0044,2020-008V,2026-07-16T02:17:18.766176,13.10372819,.00017342,87.8822,30.5076,85.5785,274.5541,0,U,45150,999,31226,-.15791976E-2,-.539E-5,0
ONEWEB-0045,2020-008W,2026-07-16T00:05:31.067520,13.11418754,.00017149,87.8893,15.3231,91.2101,268.9223,0,U,45151,999,31418,-.59174254E-4,-.8E-7,0
ONEWEB-0047,2020-008X,2026-07-16T02:07:19.767072,13.10369232,.00018903,87.8820,30.5080,94.2175,265.9168,0,U,45152,999,31198,-.30776807E-3,-.95E-6,0
ONEWEB-0048,2020-008Y,2026-07-16T02:00:13.319136,13.10370734,.00017239,87.8811,30.5275,92.9100,267.2225,0,U,45153,999,31159,.4414393E-3,.167E-5,0
ONEWEB-0049,2020-008Z,2026-07-16T00:14:55.403808,13.10369223,.00018907,87.8809,30.5313,76.5950,283.5388,0,U,45154,999,31180,-.16964812E-3,-.47E-6,0
ONEWEB-0051,2020-008AA,2026-07-16T00:03:04.543488,13.11419423,.00018356,87.8887,15.3292,89.8520,270.2819,0,U,45155,999,31486,-.32847883E-3,-.104E-5,0
ONEWEB-0052,2020-008AB,2026-07-16T06:14:31.417440,13.10374722,.00017493,87.8822,30.4696,76.3158,283.8164,0,U,45156,999,31174,-.20257002E-2,-.694E-5,0
