ONEWEB-0012             
1 44057U 19010A   26197.13200586  .00000035  00000+0  58461-4 0  9996
2 44057  87.9077 223.0353 0001644  94.6878 265.4441 13.16593889355377
ONEWEB-0010             
1 44058U 19010B   26197.30935007  .00000061  00000+0  12499-3 0  9998
2 44058  87.9080 222.9962 0002305  99.8126 260.3266 13.16594392355441
ONEWEB-0008             
1 44059U 19010C   26197.10668799 -.00000106  00000+0 -31020-3 0  9991
2 44059  87.9078 223.0316 0002161  86.0846 274.0532 13.16593412355531
ONEWEB-0007             
1 44060U 19010D   26197.16477647  .00000093  00000+0  21164-3 0  9990
2 44060  87.8984 253.4472 0001963 105.8191 254.3156 13.15548495355184
ONEWEB-0006             
1 44061U 19010E   26197.16871932 -.00000018  00000+0 -80628-4 0  9996
2 44061  87.8996 253.4135 0002266  97.4148 262.7240 13.15551374355232
ONEWEB-0011             
1 44062U 19010F   26197.21308946  .00000134  00000+0  32271-3 0  9990
2 44062  87.8996 253.4148 0002280  97.3169 262.8220 13.15549439355233
ONEWEB-0013             
1 45131U 20008A   26197.28255752  .00000129  00000+0  33900-3 0  9994
2 45131  87.8487  46.9507 0000923  65.2317 294.8906 13.09454698309871
ONEWEB-0017             
1 45132U 20008B   26197.24468030 -.00000280  00000+0 -83854-3 0  9999
2 45132  87.8809  30.4771 0002019  92.6618 267.4740 13.10372434311758
ONEWEB-0020             
1 45133U 20008C   26197.29050126  .00000581  00000+0  16294-2 0  9993
2 45133  87.8822  30.4676 0001840  87.2280 272.9058 13.10373444312154
ONEWEB-0021             
1 45134U 20008D   26197.07669027  .00000405  00000+0  11251-2 0  9999
2 45134  87.8812  30.5246 0001766  91.2561 268.8768 13.10369333312437
ONEWEB-0023             
1 45136U 20008F   26197.24042981 -.00000082  00000+0 -26982-3 0  9995
2 45136  87.8816  30.4760 0001800  82.8580 277.2752 13.10368379311883
ONEWEB-0024             
1 45137U 20008G   26197.28893384  .00000506  00000+0  14139-2 0  9990
2 45137  87.8829  30.4599 0001865  90.0484 270.0857 13.10373352312057
ONEWEB-0025             
1 45138U 20008H   26197.05958771  .00000548  00000+0  15326-2 0  9993
2 45138  87.8829  30.4956 0002222  80.1437 279.9941 13.10374161312355
ONEWEB-0026             
1 45139U 20008J   26197.22763263 -.00000354  00000+0 -10355-2 0  9997
2 45139  87.8885  15.2847 0001995  91.5005 268.6351 13.11418019314917
ONEWEB-0028             
1 45140U 20008K   26197.05045687 -.00000296  00000+0 -87116-3 0  9998
2 45140  87.8877  15.3270 0001283  86.3181 273.8094 13.11414726312403
ONEWEB-0032             
1 45141U 20008L   26197.09379905 -.00000454  00000+0 -13383-2 0  9996
2 45141  87.8814  30.5092 0001449  78.4467 281.6823 13.10370682312081
ONEWEB-0033             
1 45142U 20008M   26197.06821405  .00000670  00000+0  18818-2 0  9997
2 45142  87.8811  30.5202 0002276  95.8629 264.2757 13.10371710311999
ONEWEB-0035             
1 45143U 20008N   26197.08870348 -.00000157  00000+0 -48483-3 0  9994
2 45143  87.8809  30.5095 0001828  91.0529 269.0808 13.10373717311726
ONEWEB-0036             
1 45144U 20008P   26197.06640661  .00000617  00000+0  17310-2 0  9999
2 45144  87.8830  30.5314 0001737  82.1434 277.9890 13.10373721312141
ONEWEB-0038             
1 45145U 20008Q   26197.00906040  .00000205  00000+0  54347-3 0  9995
2 45145  87.8901  15.3410 0002047 141.7676 218.3598 13.11418965314107
ONEWEB-0039             
1 45146U 20008R   26197.07160964  .00000620  00000+0  17396-2 0  9993
2 45146  87.8816  30.5106 0001324  82.6340 277.4937 13.10370917311947
ONEWEB-0040             
1 45147U 20008S   26197.06481428  .00000683  00000+0  19199-2 0  9996
2 45147  87.8815  30.5222 0001853  76.7791 283.3543 13.10372431311646
ONEWEB-0043             
1 45149U 20008U   26197.06665285  .00000645  00000+0  18124-2 0  9998
2 45149  87.8821  30.5114 0001344  80.2590 279.8689 13.10374992311967
ONEWEB-0044             
1 45150U 20008V   26197.09535609 -.00000539  00000+0 -15792-2 0  9991
2 45150  87.8822  30.5076 0001734  85.5785 274.5541 13.10372819312263
ONEWEB-0045             
1 45151U 20008W   26197.00383180 -.00000008  00000+0 -59174-4 0  9993
2 45151  87.8893  15.3231 0001714  91.2101 268.9223 13.11418754314187
ONEWEB-0047             
1 45152U 20008X   26197.08842323 -.00000095  00000+0 -30777-3 0  9994
2 45152  87.8820  30.5080 0001890  94.2175 265.9168 13.10369232311983
ONEWEB-0048             
1 45153U 20008Y   26197.08348749  .00000167  00000+0  44144-3 0  9999
2 45153  87.8811  30.5275 0001723  92.9100 267.2225 13.10370734311593
ONEWEB-0049             
1 45154U 20008Z   26197.01036347 -.00000047  00000+0 -16965-3 0  9990
2 45154  87.8809  30.5313 0001890  76.5950 283.5388 13.10369223311806
ONEWEB-0051             
1 45155U 20008AA  26197.00213592 -.00000104  00000+0 -32848-3 0  9991
2 45155  87.8887  15.3292 0001835  89.8520 270.2819 13.11419423314869
ONEWEB-0052             
1 45156U 20008AB  26197.26008585 -.00000694  00000+0 -20257-2 0  9998
2 45156  87.8822  30.4696 0001749  76.3158 283.8164 13.10374722311745
